{
  "type": "FeatureCollection",
  "features": [
    {
      "type": "Feature",
      "properties": {
        "norad_id": 36385,
        "name": "COSMOS 2251 DEB",
        "group": "cosmos-2251-debris",
        "lat": -67.90161853096593,
        "lon": 91.01850829921759,
        "alt_km": 567.4771936860016,
        "timestamp": "2025-12-22T04:03:39.565640+00:00",
        "meta_object_name": "COSMOS 2251 DEB",
        "meta_object_id": "1993-036AZN",
        "meta_epoch": "2025-12-20T19:47:03.334560",
        "meta_mean_motion": 14.72696016,
        "meta_eccentricity": 0.01415357,
        "meta_inclination": 73.9698,
        "meta_ra_of_asc_node": 138.7285,
        "meta_arg_of_pericenter": 311.3318,
        "meta_mean_anomaly": 47.5743,
        "meta_ephemeris_type": 0,
        "meta_classification_type": "U",
        "meta_norad_cat_id": 36385,
        "meta_element_set_no": 999,
        "meta_rev_at_epoch": 85221,
        "meta_bstar": 0.0008039038,
        "meta_mean_motion_dot": 5.978e-05,
        "meta_mean_motion_ddot": 0,
        "tle_line1": "1 36385U 93036AZN 25354.82434415  .00005978  00000+0  80390-3 0  9997",
        "tle_line2": "2 36385  73.9698 138.7285 0141535 311.3318  47.5743 14.72696016852212"
      },
      "geometry": {
        "type": "Point",
        "coordinates": [
          91.01850829921759,
          -67.90161853096593
        ]
      }
    },
    {
      "type": "Feature",
      "properties": {
        "norad_id": 36420,
        "name": "COSMOS 2251 DEB",
        "group": "cosmos-2251-debris",
        "lat": 72.22091069966594,
        "lon": -38.65238294752478,
        "alt_km": 763.2844684274105,
        "timestamp": "2025-12-22T04:03:39.565650+00:00",
        "meta_object_name": "COSMOS 2251 DEB",
        "meta_object_id": "1993-036AZT",
        "meta_epoch": "2025-12-21T02:55:38.256384",
        "meta_mean_motion": 14.36907864,
        "meta_eccentricity": 0.00184562,
        "meta_inclination": 74.0376,
        "meta_ra_of_asc_node": 260.0713,
        "meta_arg_of_pericenter": 346.0954,
        "meta_mean_anomaly": 80.7548,
        "meta_ephemeris_type": 0,
        "meta_classification_type": "U",
        "meta_norad_cat_id": 36420,
        "meta_element_set_no": 999,
        "meta_rev_at_epoch": 85157,
        "meta_bstar": 0.00010545411,
        "meta_mean_motion_dot": 2.86e-06,
        "meta_mean_motion_ddot": 0,
        "tle_line1": "1 36420U 93036AZT 25355.12197056  .00000286  00000+0  10545-3 0  9990",
        "tle_line2": "2 36420  74.0376 260.0713 0018456 346.0954  80.7548 14.36907864851574"
      },
      "geometry": {
        "type": "Point",
        "coordinates": [
          -38.65238294752478,
          72.22091069966594
        ]
      }
    },
    {
      "type": "Feature",
      "properties": {
        "norad_id": 36430,
        "name": "COSMOS 2251 DEB",
        "group": "cosmos-2251-debris",
        "lat": 25.94009714845107,
        "lon": -96.60468256234773,
        "alt_km": 792.945499885338,
        "timestamp": "2025-12-22T04:03:39.565661+00:00",
        "meta_object_name": "COSMOS 2251 DEB",
        "meta_object_id": "1993-036BAD",
        "meta_epoch": "2025-12-17T14:02:08.838528",
        "meta_mean_motion": 14.27804633,
        "meta_eccentricity": 0.00972961,
        "meta_inclination": 74.0048,
        "meta_ra_of_asc_node": 99.7344,
        "meta_arg_of_pericenter": 248.7934,
        "meta_mean_anomaly": 110.2799,
        "meta_ephemeris_type": 0,
        "meta_classification_type": "U",
        "meta_norad_cat_id": 36430,
        "meta_element_set_no": 999,
        "meta_rev_at_epoch": 64626,
        "meta_bstar": 0.00041842357,
        "meta_mean_motion_dot": 1.061e-05,
        "meta_mean_motion_ddot": 0,
        "tle_line1": "1 36430U 93036BAD 25351.58482452  .00001061  00000+0  41842-3 0  9990",
        "tle_line2": "2 36430  74.0048  99.7344 0097296 248.7934 110.2799 14.27804633646268"
      },
      "geometry": {
        "type": "Point",
        "coordinates": [
          -96.60468256234773,
          25.94009714845107
        ]
      }
    },
    {
      "type": "Feature",
      "properties": {
        "norad_id": 36437,
        "name": "COSMOS 2251 DEB",
        "group": "cosmos-2251-debris",
        "lat": 3.276131170963054,
        "lon": -165.35519519123878,
        "alt_km": 655.050973677181,
        "timestamp": "2025-12-22T04:03:39.565671+00:00",
        "meta_object_name": "COSMOS 2251 DEB",
        "meta_object_id": "1993-036BAL",
        "meta_epoch": "2025-12-20T18:36:38.364192",
        "meta_mean_motion": 14.70810572,
        "meta_eccentricity": 0.00231641,
        "meta_inclination": 73.942,
        "meta_ra_of_asc_node": 18.3096,
        "meta_arg_of_pericenter": 249.5495,
        "meta_mean_anomaly": 110.3188,
        "meta_ephemeris_type": 0,
        "meta_classification_type": "U",
        "meta_norad_cat_id": 36437,
        "meta_element_set_no": 999,
        "meta_rev_at_epoch": 66169,
        "meta_bstar": 0.00075908188,
        "meta_mean_motion_dot": 4.626e-05,
        "meta_mean_motion_ddot": 0,
        "tle_line1": "1 36437U 93036BAL 25354.77544403  .00004626  00000+0  75908-3 0  9996",
        "tle_line2": "2 36437  73.9420  18.3096 0023164 249.5495 110.3188 14.70810572661696"
      },
      "geometry": {
        "type": "Point",
        "coordinates": [
          -165.35519519123878,
          3.276131170963054
        ]
      }
    },
    {
      "type": "Feature",
      "properties": {
        "norad_id": 36439,
        "name": "COSMOS 2251 DEB",
        "group": "cosmos-2251-debris",
        "lat": -64.19839855415361,
        "lon": -121.83772599649423,
        "alt_km": 1141.3765258805524,
        "timestamp": "2025-12-22T04:03:39.565681+00:00",
        "meta_object_name": "COSMOS 2251 DEB",
        "meta_object_id": "1993-036BAN",
        "meta_epoch": "2025-12-16T11:25:24.463776",
        "meta_mean_motion": 13.47804354,
        "meta_eccentricity": 0.04280619,
        "meta_inclination": 73.9685,
        "meta_ra_of_asc_node": 30.7531,
        "meta_arg_of_pericenter": 1.8523,
        "meta_mean_anomaly": 358.4044,
        "meta_ephemeris_type": 0,
        "meta_classification_type": "U",
        "meta_norad_cat_id": 36439,
        "meta_element_set_no": 999,
        "meta_rev_at_epoch": 58663,
        "meta_bstar": 0.0011092098,
        "meta_mean_motion_dot": 1.175e-05,
        "meta_mean_motion_ddot": 0,
        "tle_line1": "1 36439U 93036BAN 25350.47597759  .00001175  00000+0  11092-2 0  9992",
        "tle_line2": "2 36439  73.9685  30.7531 0428061   1.8523 358.4044 13.47804354586639"
      },
      "geometry": {
        "type": "Point",
        "coordinates": [
          -121.83772599649423,
          -64.19839855415361
        ]
      }
    },
    {
      "type": "Feature",
      "properties": {
        "norad_id": 36441,
        "name": "COSMOS 2251 DEB",
        "group": "cosmos-2251-debris",
        "lat": 56.22082040790586,
        "lon": -4.156562518105923,
        "alt_km": 465.62073062373383,
        "timestamp": "2025-12-22T04:03:39.565691+00:00",
        "meta_object_name": "COSMOS 2251 DEB",
        "meta_object_id": "1993-036BAQ",
        "meta_epoch": "2025-12-18T05:47:29.908032",
        "meta_mean_motion": 15.06846048,
        "meta_eccentricity": 0.01082047,
        "meta_inclination": 73.8354,
        "meta_ra_of_asc_node": 338.3111,
        "meta_arg_of_pericenter": 76.0854,
        "meta_mean_anomaly": 285.2342,
        "meta_ephemeris_type": 0,
        "meta_classification_type": "U",
        "meta_norad_cat_id": 36441,
        "meta_element_set_no": 999,
        "meta_rev_at_epoch": 87048,
        "meta_bstar": 0.0004365334,
        "meta_mean_motion_dot": 7.404e-05,
        "meta_mean_motion_ddot": 0,
        "tle_line1": "1 36441U 93036BAQ 25352.24131838  .00007404  00000+0  43653-3 0  9994",
        "tle_line2": "2 36441  73.8354 338.3111 0108204  76.0854 285.2342 15.06846048870480"
      },
      "geometry": {
        "type": "Point",
        "coordinates": [
          -4.156562518105923,
          56.22082040790586
        ]
      }
    },
    {
      "type": "Feature",
      "properties": {
        "norad_id": 36442,
        "name": "COSMOS 2251 DEB",
        "group": "cosmos-2251-debris",
        "lat": -43.3134532540255,
        "lon": 3.289502424167972,
        "alt_km": 468.8776718156869,
        "timestamp": "2025-12-22T04:03:39.565701+00:00",
        "meta_object_name": "COSMOS 2251 DEB",
        "meta_object_id": "1993-036BAR",
        "meta_epoch": "2025-12-21T18:51:31.867200",
        "meta_mean_motion": 15.32486394,
        "meta_eccentricity": 0.0008017,
        "meta_inclination": 73.9482,
        "meta_ra_of_asc_node": 19.8637,
        "meta_arg_of_pericenter": 316.0651,
        "meta_mean_anomaly": 43.9914,
        "meta_ephemeris_type": 0,
        "meta_classification_type": "U",
        "meta_norad_cat_id": 36442,
        "meta_element_set_no": 999,
        "meta_rev_at_epoch": 86054,
        "meta_bstar": 0.0050536,
        "meta_mean_motion_dot": 0.00162161,
        "meta_mean_motion_ddot": 0,
        "tle_line1": "1 36442U 93036BAR 25355.78578550  .00162161  00000+0  50536-2 0  9992",
        "tle_line2": "2 36442  73.9482  19.8637 0008017 316.0651  43.9914 15.32486394860544"
      },
      "geometry": {
        "type": "Point",
        "coordinates": [
          3.289502424167972,
          -43.3134532540255
        ]
      }
    }
  ]
}